STARLINK-3191           
1 49770U 21115AY  25210.90429409  .00001794  00000+0  13082-3 0  9991
2 49770  53.2179  59.2969 0001358  99.9511 260.1634 15.08835242203158
STARLINK-3313           
1 50157U 21125B   25210.64310838  .00016519  00000+0  57205-3 0  9995
2 50157  53.2172 177.9471 0000713 132.6666 227.4396 15.30005438202867
STARLINK-3309           
1 50158U 21125C   25210.20508497 -.00000899  00000+0 -38407-4 0  9998
2 50158  53.2164 182.3922 0001185  93.4797 266.6330 15.08844555199632
STARLINK-3297           
1 50159U 21125D   25210.20140238 -.00000125  00000+0  10235-4 0  9994
2 50159  53.2160 182.4063 0001373  86.0474 274.0675 15.08838692202719
STARLINK-3304           
1 50161U 21125F   25210.60892279  .00000569  00000+0  53839-4 0  9998
2 50161  53.2163 180.5699 0001335  86.1356 273.9789 15.08833269202301
STARLINK-3306           
1 50163U 21125H   25210.59236016  .00000855  00000+0  71781-4 0  9993
2 50163  53.2162 160.6354 0001347  80.0471 280.0674 15.08842627202572
STARLINK-3305           
1 50166U 21125L   25210.61079427  .00000192  00000+0  30122-4 0  9998
2 50166  53.2160 170.4960 0001296  88.2918 271.8223 15.08840105199835
STARLINK-3271           
1 50167U 21125M   25210.65404033 -.00000101  00000+0  11756-4 0  9991
2 50167  53.2161 180.3774 0001298  81.3049 278.8090 15.08843092202787
STARLINK-3296           
1 50168U 21125N   25210.62184982  .00000191  00000+0  30054-4 0  9997
2 50168  53.2168 170.6006 0001223  83.6646 276.4486 15.08845176202925
STARLINK-3301           
1 50169U 21125P   25210.58408691 -.00000671  00000+0 -24049-4 0  9991
2 50169  53.2168 170.6792 0001413  82.2391 277.8762 15.08845238202922
STARLINK-3245           
1 50170U 21125Q   25210.60617717 -.00001123  00000+0 -52481-4 0  9991
2 50170  53.2165 170.5835 0001362  89.7633 270.3516 15.08828384202919
