[{"OBJECT_NAME":"STARLINK-3191","OBJECT_ID":"2021-115AY","EPOCH":"2025-07-29T21:42:11.009376","MEAN_MOTION":15.08835242,"ECCENTRICITY":0.0001358,"INCLINATION":53.2179,"RA_OF_ASC_NODE":59.2969,"ARG_OF_PERICENTER":99.9511,"MEAN_ANOMALY":260.1634,"EPHEMERIS_TYPE":0,"CLASSIFICATION_TYPE":"U","NORAD_CAT_ID":49770,"ELEMENT_SET_NO":999,"REV_AT_EPOCH":20315,"BSTAR":0.00013082,"MEAN_MOTION_DOT":1.794e-5,"MEAN_MOTION_DDOT":0},{"OBJECT_NAME":"STARLINK-3313","OBJECT_ID":"2021-125B","EPOCH":"2025-07-29T15:26:04.564032","MEAN_MOTION":15.30005438,"ECCENTRICITY":7.13e-5,"INCLINATION":53.2172,"RA_OF_ASC_NODE":177.9471,"ARG_OF_PERICENTER":132.6666,"MEAN_ANOMALY":227.4396,"EPHEMERIS_TYPE":0,"CLASSIFICATION_TYPE":"U","NORAD_CAT_ID":50157,"ELEMENT_SET_NO":999,"REV_AT_EPOCH":19973,"BSTAR":0.00057205,"MEAN_MOTION_DOT":0.00016519,"MEAN_MOTION_DDOT":0},{"OBJECT_NAME":"STARLINK-3309","OBJECT_ID":"2021-125C","EPOCH":"2025-07-29T04:55:19.341408","MEAN_MOTION":15.08844555,"ECCENTRICITY":0.0001185,"INCLINATION":53.2164,"RA_OF_ASC_NODE":182.3922,"ARG_OF_PERICENTER":93.4797,"MEAN_ANOMALY":266.633,"EPHEMERIS_TYPE":0,"CLASSIFICATION_TYPE":"U","NORAD_CAT_ID":50158,"ELEMENT_SET_NO":999,"REV_AT_EPOCH":19963,"BSTAR":-3.8407e-5,"MEAN_MOTION_DOT":-8.99e-6,"MEAN_MOTION_DDOT":0},{"OBJECT_NAME":"STARLINK-3297","OBJECT_ID":"2021-125D","EPOCH":"2025-07-29T04:50:01.165632","MEAN_MOTION":15.08838692,"ECCENTRICITY":0.0001373,"INCLINATION":53.216,"RA_OF_ASC_NODE":182.4063,"ARG_OF_PERICENTER":86.0474,"MEAN_ANOMALY":274.0675,"EPHEMERIS_TYPE":0,"CLASSIFICATION_TYPE":"U","NORAD_CAT_ID":50159,"ELEMENT_SET_NO":999,"REV_AT_EPOCH":20271,"BSTAR":1.0235e-5,"MEAN_MOTION_DOT":-1.25e-6,"MEAN_MOTION_DDOT":0},{"OBJECT_NAME":"STARLINK-3304","OBJECT_ID":"2021-125F","EPOCH":"2025-07-29T14:36:50.929056","MEAN_MOTION":15.08833269,"ECCENTRICITY":0.0001335,"INCLINATION":53.2163,"RA_OF_ASC_NODE":180.5699,"ARG_OF_PERICENTER":86.1356,"MEAN_ANOMALY":273.9789,"EPHEMERIS_TYPE":0,"CLASSIFICATION_TYPE":"U","NORAD_CAT_ID":50161,"ELEMENT_SET_NO":999,"REV_AT_EPOCH":20230,"BSTAR":5.3839e-5,"MEAN_MOTION_DOT":5.69e-6,"MEAN_MOTION_DDOT":0},{"OBJECT_NAME":"STARLINK-3306","OBJECT_ID":"2021-125H","EPOCH":"2025-07-29T14:12:59.917824","MEAN_MOTION":15.08842627,"ECCENTRICITY":0.0001347,"INCLINATION":53.2162,"RA_OF_ASC_NODE":160.6354,"ARG_OF_PERICENTER":80.0471,"MEAN_ANOMALY":280.0674,"EPHEMERIS_TYPE":0,"CLASSIFICATION_TYPE":"U","NORAD_CAT_ID":50163,"ELEMENT_SET_NO":999,"REV_AT_EPOCH":20257,"BSTAR":7.1781e-5,"MEAN_MOTION_DOT":8.55e-6,"MEAN_MOTION_DDOT":0},{"OBJECT_NAME":"STARLINK-3305","OBJECT_ID":"2021-125L","EPOCH":"2025-07-29T14:39:32.624928","MEAN_MOTION":15.08840105,"ECCENTRICITY":0.0001296,"INCLINATION":53.216,"RA_OF_ASC_NODE":170.496,"ARG_OF_PERICENTER":88.2918,"MEAN_ANOMALY":271.8223,"EPHEMERIS_TYPE":0,"CLASSIFICATION_TYPE":"U","NORAD_CAT_ID":50166,"ELEMENT_SET_NO":999,"REV_AT_EPOCH":19983,"BSTAR":3.0122e-5,"MEAN_MOTION_DOT":1.92e-6,"MEAN_MOTION_DDOT":0},{"OBJECT_NAME":"STARLINK-3271","OBJECT_ID":"2021-125M","EPOCH":"2025-07-29T15:41:49.084512","MEAN_MOTION":15.08843092,"ECCENTRICITY":0.0001298,"INCLINATION":53.2161,"RA_OF_ASC_NODE":180.3774,"ARG_OF_PERICENTER":81.3049,"MEAN_ANOMALY":278.809,"EPHEMERIS_TYPE":0,"CLASSIFICATION_TYPE":"U","NORAD_CAT_ID":50167,"ELEMENT_SET_NO":999,"REV_AT_EPOCH":20230,"BSTAR":1.1756e-5,"MEAN_MOTION_DOT":-1.01e-6,"MEAN_MOTION_DDOT":0},{"OBJECT_NAME":"STARLINK-3296","OBJECT_ID":"2021-125N","EPOCH":"2025-07-29T14:55:27.824448","MEAN_MOTION":15.08845176,"ECCENTRICITY":0.0001223,"INCLINATION":53.2168,"RA_OF_ASC_NODE":170.6006,"ARG_OF_PERICENTER":83.6646,"MEAN_ANOMALY":276.4486,"EPHEMERIS_TYPE":0,"CLASSIFICATION_TYPE":"U","NORAD_CAT_ID":50168,"ELEMENT_SET_NO":999,"REV_AT_EPOCH":19983,"BSTAR":3.0054e-5,"MEAN_MOTION_DOT":1.91e-6,"MEAN_MOTION_DDOT":0},{"OBJECT_NAME":"STARLINK-3301","OBJECT_ID":"2021-125P","EPOCH":"2025-07-29T14:01:05.109024","MEAN_MOTION":15.08845238,"ECCENTRICITY":0.0001413,"INCLINATION":53.2168,"RA_OF_ASC_NODE":170.6792,"ARG_OF_PERICENTER":82.2391,"MEAN_ANOMALY":277.8762,"EPHEMERIS_TYPE":0,"CLASSIFICATION_TYPE":"U","NORAD_CAT_ID":50169,"ELEMENT_SET_NO":999,"REV_AT_EPOCH":20292,"BSTAR":-2.4049e-5,"MEAN_MOTION_DOT":-6.71e-6,"MEAN_MOTION_DDOT":0},{"OBJECT_NAME":"STARLINK-3245","OBJECT_ID":"2021-125Q","EPOCH":"2025-07-29T14:32:53.707488","MEAN_MOTION":15.08828384,"ECCENTRICITY":0.0001362,"INCLINATION":53.2165,"RA_OF_ASC_NODE":170.5835,"ARG_OF_PERICENTER":89.7633,"MEAN_ANOMALY":270.3516,"EPHEMERIS_TYPE":0,"CLASSIFICATION_TYPE":"U","NORAD_CAT_ID":50170,"ELEMENT_SET_NO":999,"REV_AT_EPOCH":20243,"BSTAR":-5.2481e-5,"MEAN_MOTION_DOT":-1.123e-5,"MEAN_MOTION_DDOT":0}]
